start=new Date('2022-11-14T00:00:00.000Z').valueOf();
sats=[{"ARG_OF_PERICENTER":"57.9984","REV_AT_EPOCH":"9498","RA_OF_ASC_NODE":"254.1940","GP_ID":"217624631","TLE_LINE1":"1 47746U 21017AA  22317.31427125  .00010300  00000-0  70969-3 0  9997","ELEMENT_SET_NO":"999","APOAPSIS":"548.480","CENTER_NAME":"EARTH","FILE":"3653238","REF_FRAME":"TEME","COUNTRY_CODE":"US","MEAN_ANOMALY":"302.1176","OBJECT_TYPE":"PAYLOAD","RCS_SIZE":"LARGE","OBJECT_NAME":"STARLINK-2160","EPOCH":"2022-11-13T07:32:33.036000","BSTAR":"0.00070969000000","TLE_LINE2":"2 47746  53.0543 254.1940 0001758  57.9984 302.1176 15.06384145 94985","TIME_SYSTEM":"UTC","NORAD_CAT_ID":"47746","MEAN_ELEMENT_THEORY":"SGP4","DECAY_DATE":null,"OBJECT_ID":"2021-017AA","MEAN_MOTION":"15.06384145","SITE":"AFETR","CLASSIFICATION_TYPE":"U","LAUNCH_DATE":"2021-03-04","SEMIMAJOR_AXIS":"6925.397","INCLINATION":"53.0543","ECCENTRICITY":"0.00017580","EPHEMERIS_TYPE":"0","PERIOD":"95.593","PERIAPSIS":"546.045","MEAN_MOTION_DDOT":"0.0000000000000","MEAN_MOTION_DOT":"0.00010300"},{"DECAY_DATE":null,"BSTAR":"-0.00016944000000","TLE_LINE2":"2 47747  53.0533 242.1022 0002146  50.2542 309.8636 15.06396975 95239","TIME_SYSTEM":"UTC","NORAD_CAT_ID":"47747","MEAN_ELEMENT_THEORY":"SGP4","CLASSIFICATION_TYPE":"U","OBJECT_ID":"2021-017AB","MEAN_MOTION":"15.06396975","SITE":"AFETR","EPHEMERIS_TYPE":"0","LAUNCH_DATE":"2021-03-04","SEMIMAJOR_AXIS":"6925.358","ECCENTRICITY":"0.00021460","INCLINATION":"53.0533","PERIAPSIS":"545.737","MEAN_MOTION_DDOT":"0.0000000000000","MEAN_MOTION_DOT":"-0.00002805","PERIOD":"95.592","REV_AT_EPOCH":"9523","RA_OF_ASC_NODE":"242.1022","GP_ID":"217692204","TLE_LINE1":"1 47747U 21017AB  22317.77594170 -.00002805  00000-0 -16944-3 0  9999","ARG_OF_PERICENTER":"50.2542","APOAPSIS":"548.709","CENTER_NAME":"EARTH","ELEMENT_SET_NO":"999","FILE":"3653957","REF_FRAME":"TEME","COUNTRY_CODE":"US","OBJECT_NAME":"STARLINK-2161","EPOCH":"2022-11-13T18:37:21.362880","MEAN_ANOMALY":"309.8636","OBJECT_TYPE":"PAYLOAD","RCS_SIZE":"LARGE"},{"EPHEMERIS_TYPE":"0","ECCENTRICITY":"0.00020200","INCLINATION":"53.0546","SEMIMAJOR_AXIS":"6925.377","LAUNCH_DATE":"2021-03-04","MEAN_MOTION_DOT":"-0.00000576","PERIAPSIS":"545.843","MEAN_MOTION_DDOT":"0.0000000000000","PERIOD":"95.593","DECAY_DATE":null,"NORAD_CAT_ID":"47748","TIME_SYSTEM":"UTC","MEAN_ELEMENT_THEORY":"SGP4","BSTAR":"-0.00001976300000","TLE_LINE2":"2 47748  53.0546 243.3313 0002020  46.9278 313.1879 15.06390715 94534","CLASSIFICATION_TYPE":"U","MEAN_MOTION":"15.06390715","SITE":"AFETR","OBJECT_ID":"2021-017AC","COUNTRY_CODE":"US","FILE":"3653068","REF_FRAME":"TEME","OBJECT_NAME":"STARLINK-2162","EPOCH":"2022-11-13T12:04:34.778784","MEAN_ANOMALY":"313.1879","OBJECT_TYPE":"PAYLOAD","RCS_SIZE":"LARGE","GP_ID":"217599792","RA_OF_ASC_NODE":"243.3313","TLE_LINE1":"1 47748U 21017AC  22317.50318031 -.00000576  00000-0 -19763-4 0  9997","REV_AT_EPOCH":"9453","ARG_OF_PERICENTER":"46.9278","APOAPSIS":"548.641","CENTER_NAME":"EARTH","ELEMENT_SET_NO":"999"},{"COUNTRY_CODE":"US","FILE":"3653957","REF_FRAME":"TEME","MEAN_ANOMALY":"304.2564","OBJECT_TYPE":"PAYLOAD","RCS_SIZE":"LARGE","OBJECT_NAME":"STARLINK-2163","EPOCH":"2022-11-13T18:47:58.365888","ARG_OF_PERICENTER":"55.8603","GP_ID":"217691204","RA_OF_ASC_NODE":"242.0847","TLE_LINE1":"1 47749U 21017AD  22317.78331442  .00000364  00000-0  43328-4 0  9996","REV_AT_EPOCH":"9520","ELEMENT_SET_NO":"999","APOAPSIS":"548.537","CENTER_NAME":"EARTH","INCLINATION":"53.0546","ECCENTRICITY":"0.00018760","SEMIMAJOR_AXIS":"6925.373","LAUNCH_DATE":"2021-03-04","EPHEMERIS_TYPE":"0","PERIOD":"95.593","MEAN_MOTION_DOT":"0.00000364","PERIAPSIS":"545.939","MEAN_MOTION_DDOT":"0.0000000000000","NORAD_CAT_ID":"47749","TIME_SYSTEM":"UTC","MEAN_ELEMENT_THEORY":"SGP4","BSTAR":"0.00004332800000","TLE_LINE2":"2 47749  53.0546 242.0847 0001876  55.8603 304.2564 15.06392013 95202","DECAY_DATE":null,"MEAN_MOTION":"15.06392013","SITE":"AFETR","OBJECT_ID":"2021-017AD","CLASSIFICATION_TYPE":"U"},{"OBJECT_ID":"2021-017AE","MEAN_MOTION":"15.06401245","SITE":"AFETR","CLASSIFICATION_TYPE":"U","BSTAR":"-0.00005371600000","TLE_LINE2":"2 47750  53.0522 245.4415 0001891  43.9447 316.1692 15.06401245 95096","TIME_SYSTEM":"UTC","NORAD_CAT_ID":"47750","MEAN_ELEMENT_THEORY":"SGP4","DECAY_DATE":null,"PERIOD":"95.592","PERIAPSIS":"545.900","MEAN_MOTION_DDOT":"0.0000000000000","MEAN_MOTION_DOT":"-0.00001082","SEMIMAJOR_AXIS":"6925.345","LAUNCH_DATE":"2021-03-04","ECCENTRICITY":"0.00018910","INCLINATION":"53.0522","EPHEMERIS_TYPE":"0","ELEMENT_SET_NO":"999","APOAPSIS":"548.519","CENTER_NAME":"EARTH","ARG_OF_PERICENTER":"43.9447","REV_AT_EPOCH":"9509","GP_ID":"217625131","RA_OF_ASC_NODE":"245.4415","TLE_LINE1":"1 47750U 21017AE  22317.03137351 -.00001082  00000-0 -53716-4 0  9991","OBJECT_TYPE":"PAYLOAD","MEAN_ANOMALY":"316.1692","RCS_SIZE":"LARGE","OBJECT_NAME":"STARLINK-2164","EPOCH":"2022-11-13T00:45:10.671264","FILE":"3653238","REF_FRAME":"TEME","COUNTRY_CODE":"US"},{"OBJECT_TYPE":"PAYLOAD","MEAN_ANOMALY":"308.1342","RCS_SIZE":"LARGE","OBJECT_NAME":"STARLINK-2168","EPOCH":"2022-11-13T18:59:55.025376","FILE":"3653957","REF_FRAME":"TEME","COUNTRY_CODE":"US","ELEMENT_SET_NO":"999","APOAPSIS":"548.589","CENTER_NAME":"EARTH","ARG_OF_PERICENTER":"51.9821","REV_AT_EPOCH":"9535","GP_ID":"217691705","RA_OF_ASC_NODE":"232.0459","TLE_LINE1":"1 47751U 21017AF  22317.79160909 -.00000818  00000-0 -36041-4 0  9998","PERIOD":"95.593","PERIAPSIS":"545.915","MEAN_MOTION_DDOT":"0.0000000000000","MEAN_MOTION_DOT":"-0.00000818","LAUNCH_DATE":"2021-03-04","SEMIMAJOR_AXIS":"6925.387","INCLINATION":"53.0562","ECCENTRICITY":"0.00019310","EPHEMERIS_TYPE":"0","OBJECT_ID":"2021-017AF","MEAN_MOTION":"15.06387402","SITE":"AFETR","CLASSIFICATION_TYPE":"U","BSTAR":"-0.00003604100000","TLE_LINE2":"2 47751  53.0562 232.0459 0001931  51.9821 308.1342 15.06387402 95351","NORAD_CAT_ID":"47751","TIME_SYSTEM":"UTC","MEAN_ELEMENT_THEORY":"SGP4","DECAY_DATE":null},{"MEAN_MOTION":"15.06409428","SITE":"AFETR","OBJECT_ID":"2021-017AG","CLASSIFICATION_TYPE":"U","TIME_SYSTEM":"UTC","NORAD_CAT_ID":"47752","MEAN_ELEMENT_THEORY":"SGP4","BSTAR":"0.00002393100000","TLE_LINE2":"2 47752  53.0554 249.5730 0001585  57.5973 302.5169 15.06409428 95104","DECAY_DATE":null,"PERIOD":"95.592","MEAN_MOTION_DOT":"0.00000075","PERIAPSIS":"546.087","MEAN_MOTION_DDOT":"0.0000000000000","ECCENTRICITY":"0.00015850","INCLINATION":"53.0554","LAUNCH_DATE":"2021-03-04","SEMIMAJOR_AXIS":"6925.320","EPHEMERIS_TYPE":"0","ELEMENT_SET_NO":"999","APOAPSIS":"548.282","CENTER_NAME":"EARTH","ARG_OF_PERICENTER":"57.5973","RA_OF_ASC_NODE":"249.5730","GP_ID":"217626122","TLE_LINE1":"1 47752U 21017AG  22317.22810522  .00000075  00000-0  23931-4 0  9997","REV_AT_EPOCH":"9510","MEAN_ANOMALY":"302.5169","OBJECT_TYPE":"PAYLOAD","RCS_SIZE":"LARGE","OBJECT_NAME":"STARLINK-2169","EPOCH":"2022-11-13T05:28:28.291008","COUNTRY_CODE":"US","FILE":"3653238","REF_FRAME":"TEME"},{"CLASSIFICATION_TYPE":"U","OBJECT_ID":"2021-017AH","MEAN_MOTION":"15.06407442","SITE":"AFETR","DECAY_DATE":null,"BSTAR":"0.00018193000000","TLE_LINE2":"2 47753  53.0563 254.3962 0001944  53.1980 306.9187 15.06407442 94353","TIME_SYSTEM":"UTC","NORAD_CAT_ID":"47753","MEAN_ELEMENT_THEORY":"SGP4","PERIAPSIS":"545.844","MEAN_MOTION_DDOT":"0.0000000000000","MEAN_MOTION_DOT":"0.00002430","PERIOD":"95.592","EPHEMERIS_TYPE":"0","LAUNCH_DATE":"2021-03-04","SEMIMAJOR_AXIS":"6925.326","ECCENTRICITY":"0.00019440","INCLINATION":"53.0563","APOAPSIS":"548.537","CENTER_NAME":"EARTH","ELEMENT_SET_NO":"999","REV_AT_EPOCH":"9435","RA_OF_ASC_NODE":"254.3962","GP_ID":"217658134","TLE_LINE1":"1 47753U 21017AH  22317.27003628  .00002430  00000-0  18193-3 0  9994","ARG_OF_PERICENTER":"53.1980","OBJECT_NAME":"STARLINK-2170","EPOCH":"2022-11-13T06:28:51.134592","OBJECT_TYPE":"PAYLOAD","MEAN_ANOMALY":"306.9187","RCS_SIZE":"LARGE","FILE":"3653396","REF_FRAME":"TEME","COUNTRY_CODE":"US"},{"ELEMENT_SET_NO":"999","CENTER_NAME":"EARTH","APOAPSIS":"548.530","ARG_OF_PERICENTER":"45.8467","REV_AT_EPOCH":"9499","TLE_LINE1":"1 47754U 21017AJ  22317.24054706  .00003942  00000-0  28330-3 0  9998","RA_OF_ASC_NODE":"254.5160","GP_ID":"217624632","RCS_SIZE":"LARGE","MEAN_ANOMALY":"314.2682","OBJECT_TYPE":"PAYLOAD","EPOCH":"2022-11-13T05:46:23.265984","OBJECT_NAME":"STARLINK-2171","REF_FRAME":"TEME","FILE":"3653238","COUNTRY_CODE":"US","OBJECT_ID":"2021-017AJ","SITE":"AFETR","MEAN_MOTION":"15.06412069","CLASSIFICATION_TYPE":"U","TLE_LINE2":"2 47754  53.0528 254.5160 0001954  45.8467 314.2682 15.06412069 94999","BSTAR":"0.00028330000000","MEAN_ELEMENT_THEORY":"SGP4","NORAD_CAT_ID":"47754","TIME_SYSTEM":"UTC","DECAY_DATE":null,"PERIOD":"95.591","MEAN_MOTION_DDOT":"0.0000000000000","PERIAPSIS":"545.823","MEAN_MOTION_DOT":"0.00003942","SEMIMAJOR_AXIS":"6925.312","LAUNCH_DATE":"2021-03-04","INCLINATION":"53.0528","ECCENTRICITY":"0.00019540","EPHEMERIS_TYPE":"0"},{"TLE_LINE1":"1 47756U 21017AL  22317.23686945  .00003367  00000-0  24469-3 0  9995","GP_ID":"217625883","RA_OF_ASC_NODE":"254.5435","REV_AT_EPOCH":"9503","ARG_OF_PERICENTER":"37.7240","CENTER_NAME":"EARTH","APOAPSIS":"548.569","ELEMENT_SET_NO":"999","COUNTRY_CODE":"US","REF_FRAME":"TEME","FILE":"3653238","EPOCH":"2022-11-13T05:41:05.520480","OBJECT_NAME":"STARLINK-2174","RCS_SIZE":"LARGE","OBJECT_TYPE":"PAYLOAD","MEAN_ANOMALY":"322.3893","DECAY_DATE":null,"MEAN_ELEMENT_THEORY":"SGP4","NORAD_CAT_ID":"47756","TIME_SYSTEM":"UTC","TLE_LINE2":"2 47756  53.0543 254.5435 0002067  37.7240 322.3893 15.06424769 95038","BSTAR":"0.00024469000000","CLASSIFICATION_TYPE":"U","SITE":"AFETR","MEAN_MOTION":"15.06424769","OBJECT_ID":"2021-017AL","EPHEMERIS_TYPE":"0","ECCENTRICITY":"0.00020670","INCLINATION":"53.0543","SEMIMAJOR_AXIS":"6925.273","LAUNCH_DATE":"2021-03-04","MEAN_MOTION_DOT":"0.00003367","MEAN_MOTION_DDOT":"0.0000000000000","PERIAPSIS":"545.706","PERIOD":"95.591"}];
